{
    "links": {
        "self": "http://www.neowsapp.com/rest/v1/neo/3734098?api_key=iIulBulltgU6a56xZRHN4H3l9WmuAYTsLGpBGhQ2"
    },
    "id": "3734098",
    "neo_reference_id": "3734098",
    "name": "(2015 VQ65)",
    "designation": "2015 VQ65",
    "nasa_jpl_url": "http://ssd.jpl.nasa.gov/sbdb.cgi?sstr=3734098",
    "absolute_magnitude_h": 24.6,
    "estimated_diameter": {
        "kilometers": {
            "estimated_diameter_min": 0.0319561887,
            "estimated_diameter_max": 0.0714562102
        },
        "meters": {
            "estimated_diameter_min": 31.9561886721,
            "estimated_diameter_max": 71.4562101727
        },
        "miles": {
            "estimated_diameter_min": 0.0198566489,
            "estimated_diameter_max": 0.0444008168
        },
        "feet": {
            "estimated_diameter_min": 104.8431420431,
            "estimated_diameter_max": 234.436392583
        }
    },
    "is_potentially_hazardous_asteroid": false,
    "close_approach_data": [
        {
            "close_approach_date": "2015-11-10",
            "close_approach_date_full": "2015-Nov-10 20:53",
            "epoch_date_close_approach": 1447188780000,
            "relative_velocity": {
                "kilometers_per_second": "4.8803553145",
                "kilometers_per_hour": "17569.2791323281",
                "miles_per_hour": "10916.8668030846"
            },
            "miss_distance": {
                "astronomical": "0.1374317424",
                "lunar": "53.4609477936",
                "kilometers": "20559495.933428688",
                "miles": "12775078.3847763744"
            },
            "orbiting_body": "Earth"
        },
        {
            "close_approach_date": "2019-03-05",
            "close_approach_date_full": "2019-Mar-05 19:23",
            "epoch_date_close_approach": 1551813780000,
            "relative_velocity": {
                "kilometers_per_second": "4.8647338997",
                "kilometers_per_hour": "17513.0420388381",
                "miles_per_hour": "10881.9232601881"
            },
            "miss_distance": {
                "astronomical": "0.337431474",
                "lunar": "131.260843386",
                "kilometers": "50479029.78136038",
                "miles": "31366214.635438044"
            },
            "orbiting_body": "Earth"
        },
        {
            "close_approach_date": "2022-04-27",
            "close_approach_date_full": "2022-Apr-27 10:31",
            "epoch_date_close_approach": 1651055460000,
            "relative_velocity": {
                "kilometers_per_second": "7.4075105316",
                "kilometers_per_hour": "26667.0379137104",
                "miles_per_hour": "16569.8603081052"
            },
            "miss_distance": {
                "astronomical": "0.4166684947",
                "lunar": "162.0840444383",
                "kilometers": "62332719.303226289",
                "miles": "38731755.7596452282"
            },
            "orbiting_body": "Earth"
        }
    ],
    "orbital_data": {
        "orbit_id": "10",
        "orbit_determination_date": "2017-04-06 08:30:47",
        "first_observation_date": "2015-11-08",
        "last_observation_date": "2015-12-02",
        "data_arc_in_days": 24,
        "observations_used": 39,
        "orbit_uncertainty": "6",
        "minimum_orbit_intersection": ".136714",
        "jupiter_tisserand_invariant": "5.024",
        "epoch_osculation": "2459000.5",
        "eccentricity": ".1294157770862807",
        "semi_major_axis": "1.284180782090635",
        "inclination": "9.336094863160726",
        "ascending_node_longitude": "223.3545688297172",
        "orbital_period": "531.5421104599238",
        "perihelion_distance": "1.117987528257108",
        "perihelion_argument": "205.0146653326393",
        "aphelion_distance": "1.450374035924163",
        "perihelion_time": "2458956.111288055798",
        "mean_anomaly": "30.06334961135224",
        "mean_motion": ".6772746559788184",
        "equinox": "J2000",
        "orbit_class": {
            "orbit_class_type": "AMO",
            "orbit_class_description": "Near-Earth asteroid orbits similar to that of 1221 Amor",
            "orbit_class_range": "1.017 AU < q (perihelion) < 1.3 AU"
        }
    },
    "is_sentry_object": false
}